{"type": "FeatureCollection", "features": [ {"type": "Feature", "properties": {"norad_id": 35108, "name": "FENGYUN 1C DEB", "group": "fengyun-1c-debris", "lat": 58.25089310815506, "lon": -177.56841157527498, "alt_km": 837.8223317874454, "timestamp": "2025-12-18T10:51:26.095045+00:00", "meta": {"OBJECT_NAME": "FENGYUN 1C DEB", "OBJECT_ID": "1999-025DKL", "EPOCH": "2025-12-14T17:32:43.265184", "MEAN_MOTION": 14.06913766, "ECCENTRICITY": 0.01353379, "INCLINATION": 98.801, "RA_OF_ASC_NODE": 344.3103, "ARG_OF_PERICENTER": 55.9263, "MEAN_ANOMALY": 305.4667, "EPHEMERIS_TYPE": 0, "CLASSIFICATION_TYPE": "U", "NORAD_CAT_ID": 35108, "ELEMENT_SET_NO": 999, "REV_AT_EPOCH": 89266, "BSTAR": 0.00032621951, "MEAN_MOTION_DOT": 5.49e-06, "MEAN_MOTION_DDOT": 0}, "tle": {"line1": "1 35108U 99025DKL 25348.73105631  .00000549  00000+0  32622-3 0  9995", "line2": "2 35108  98.8010 344.3103 0135337  55.9263 305.4667 14.06913766892660"}}, "geometry": {"type": "Point", "coordinates": [-177.56841157527498, 58.25089310815506]}}, {"type": "Feature", "properties": {"norad_id": 35109, "name": "FENGYUN 1C DEB", "group": "fengyun-1c-debris", "lat": -22.466644118533715, "lon": 157.99853482713527, "alt_km": 937.6132497999852, "timestamp": "2025-12-18T10:51:26.095056+00:00", "meta": {"OBJECT_NAME": "FENGYUN 1C DEB", "OBJECT_ID": "1999-025DKM", "EPOCH": "2025-12-17T10:14:53.248416", "MEAN_MOTION": 14.20882874, "ECCENTRICITY": 0.01531567, "INCLINATION": 98.6156, "RA_OF_ASC_NODE": 340.593, "ARG_OF_PERICENTER": 20.8758, "MEAN_ANOMALY": 339.8583, "EPHEMERIS_TYPE": 0, "CLASSIFICATION_TYPE": "U", "NORAD_CAT_ID": 35109, "ELEMENT_SET_NO": 999, "REV_AT_EPOCH": 64226, "BSTAR": 0.00027744705, "MEAN_MOTION_DOT": 6.32e-06, "MEAN_MOTION_DDOT": 0}, "tle": {"line1": "1 35109U 99025DKM 25351.42700519  .00000632  00000+0  27745-3 0  9995", "line2": "2 35109  98.6156 340.5930 0153156  20.8758 339.8583 14.20882874642263"}}, "geometry": {"type": "Point", "coordinates": [157.99853482713527, -22.466644118533715]}}, {"type": "Feature", "properties": {"norad_id": 35111, "name": "FENGYUN 1C DEB", "group": "fengyun-1c-debris", "lat": -31.95187443071851, "lon": -114.56480059429776, "alt_km": 846.3580877783024, "timestamp": "2025-12-18T10:51:26.095066+00:00", "meta": {"OBJECT_NAME": "FENGYUN 1C DEB", "OBJECT_ID": "1999-025DKP", "EPOCH": "2025-12-16T11:54:10.013472", "MEAN_MOTION": 14.10973478, "ECCENTRICITY": 0.0021869, "INCLINATION": 99.4657, "RA_OF_ASC_NODE": 69.3478, "ARG_OF_PERICENTER": 209.5025, "MEAN_ANOMALY": 150.4911, "EPHEMERIS_TYPE": 0, "CLASSIFICATION_TYPE": "U", "NORAD_CAT_ID": 35111, "ELEMENT_SET_NO": 999, "REV_AT_EPOCH": 64197, "BSTAR": 0.00043746639, "MEAN_MOTION_DOT": 7.38e-06, "MEAN_MOTION_DDOT": 0}, "tle": {"line1": "1 35111U 99025DKP 25350.49594923  .00000738  00000+0  43747-3 0  9991", "line2": "2 35111  99.4657  69.3478 0021869 209.5025 150.4911 14.10973478641971"}}, "geometry": {"type": "Point", "coordinates": [-114.56480059429776, -31.95187443071851]}}, {"type": "Feature", "properties": {"norad_id": 35116, "name": "FENGYUN 1C DEB", "group": "fengyun-1c-debris", "lat": 25.882885334311105, "lon": 34.10315102520778, "alt_km": 764.7976472437704, "timestamp": "2025-12-18T10:51:26.095077+00:00", "meta": {"OBJECT_NAME": "FENGYUN 1C DEB", "OBJECT_ID": "1999-025DKU", "EPOCH": "2025-12-10T22:26:07.135584", "MEAN_MOTION": 14.25062569, "ECCENTRICITY": 0.0059356, "INCLINATION": 98.6618, "RA_OF_ASC_NODE": 30.9255, "ARG_OF_PERICENTER": 54.5271, "MEAN_ANOMALY": 306.1428, "EPHEMERIS_TYPE": 0, "CLASSIFICATION_TYPE": "U", "NORAD_CAT_ID": 35116, "ELEMENT_SET_NO": 999, "REV_AT_EPOCH": 59934, "BSTAR": 0.0014341, "MEAN_MOTION_DOT": 3.381e-05, "MEAN_MOTION_DDOT": 0}, "tle": {"line1": "1 35116U 99025DKU 25344.93480481  .00003381  00000+0  14341-2 0  9995", "line2": "2 35116  98.6618  30.9255 0059356  54.5271 306.1428 14.25062569599346"}}, "geometry": {"type": "Point", "coordinates": [34.10315102520778, 25.882885334311105]}}, {"type": "Feature", "properties": {"norad_id": 35121, "name": "FENGYUN 1C DEB", "group": "fengyun-1c-debris", "lat": 29.37407534210274, "lon": 39.936286154383815, "alt_km": 834.398650158817, "timestamp": "2025-12-18T10:51:26.095087+00:00", "meta": {"OBJECT_NAME": "FENGYUN 1C DEB", "OBJECT_ID": "1999-025DKZ", "EPOCH": "2025-12-14T20:41:20.055552", "MEAN_MOTION": 14.04750382, "ECCENTRICITY": 0.01586034, "INCLINATION": 98.3008, "RA_OF_ASC_NODE": 211.9365, "ARG_OF_PERICENTER": 90.6719, "MEAN_ANOMALY": 271.2626, "EPHEMERIS_TYPE": 0, "CLASSIFICATION_TYPE": "U", "NORAD_CAT_ID": 35121, "ELEMENT_SET_NO": 999, "REV_AT_EPOCH": 61121, "BSTAR": 0.00012700781, "MEAN_MOTION_DOT": 1.91e-06, "MEAN_MOTION_DDOT": 0}, "tle": {"line1": "1 35121U 99025DKZ 25348.86203768  .00000191  00000+0  12701-3 0  9993", "line2": "2 35121  98.3008 211.9365 0158603  90.6719 271.2626 14.04750382611215"}}, "geometry": {"type": "Point", "coordinates": [39.936286154383815, 29.37407534210274]}}, {"type": "Feature", "properties": {"norad_id": 35122, "name": "FENGYUN 1C DEB", "group": "fengyun-1c-debris", "lat": -78.6869638203999, "lon": 140.9798076676479, "alt_km": 862.056674890382, "timestamp": "2025-12-18T10:51:26.095098+00:00", "meta": {"OBJECT_NAME": "FENGYUN 1C DEB", "OBJECT_ID": "1999-025DLA", "EPOCH": "2025-12-16T06:40:38.257248", "MEAN_MOTION": 14.14128348, "ECCENTRICITY": 0.00254765, "INCLINATION": 98.6718, "RA_OF_ASC_NODE": 8.5868, "ARG_OF_PERICENTER": 147.8283, "MEAN_ANOMALY": 212.4451, "EPHEMERIS_TYPE": 0, "CLASSIFICATION_TYPE": "U", "NORAD_CAT_ID": 35122, "ELEMENT_SET_NO": 999, "REV_AT_EPOCH": 63917, "BSTAR": 0.00028818425, "MEAN_MOTION_DOT": 5.08e-06, "MEAN_MOTION_DDOT": 0}, "tle": {"line1": "1 35122U 99025DLA 25350.27822057  .00000508  00000+0  28818-3 0  9998", "line2": "2 35122  98.6718   8.5868 0025476 147.8283 212.4451 14.14128348639177"}}, "geometry": {"type": "Point", "coordinates": [140.9798076676479, -78.6869638203999]}}, {"type": "Feature", "properties": {"norad_id": 35123, "name": "FENGYUN 1C DEB", "group": "fengyun-1c-debris", "lat": -79.47817375637828, "lon": -64.54611509742787, "alt_km": 850.7911029747675, "timestamp": "2025-12-18T10:51:26.095108+00:00", "meta": {"OBJECT_NAME": "FENGYUN 1C DEB", "OBJECT_ID": "1999-025DLB", "EPOCH": "2025-12-15T05:44:46.773600", "MEAN_MOTION": 14.2422342, "ECCENTRICITY": 0.00496704, "INCLINATION": 99.1227, "RA_OF_ASC_NODE": 172.0178, "ARG_OF_PERICENTER": 69.1967, "MEAN_ANOMALY": 291.4521, "EPHEMERIS_TYPE": 0, "CLASSIFICATION_TYPE": "U", "NORAD_CAT_ID": 35123, "ELEMENT_SET_NO": 999, "REV_AT_EPOCH": 61109, "BSTAR": 0.00057394195, "MEAN_MOTION_DOT": 1.293e-05, "MEAN_MOTION_DDOT": 0}, "tle": {"line1": "1 35123U 99025DLB 25349.23943025  .00001293  00000+0  57394-3 0  9995", "line2": "2 35123  99.1227 172.0178 0049670  69.1967 291.4521 14.24223420611091"}}, "geometry": {"type": "Point", "coordinates": [-64.54611509742787, -79.47817375637828]}}, {"type": "Feature", "properties": {"norad_id": 35125, "name": "FENGYUN 1C DEB", "group": "fengyun-1c-debris", "lat": 8.781738181893889, "lon": -175.51521806627468, "alt_km": 793.3407570587397, "timestamp": "2025-12-18T10:51:26.095119+00:00", "meta": {"OBJECT_NAME": "FENGYUN 1C DEB", "OBJECT_ID": "1999-025DLD", "EPOCH": "2025-12-08T07:05:36.118752", "MEAN_MOTION": 14.33084151, "ECCENTRICITY": 0.00521413, "INCLINATION": 98.2165, "RA_OF_ASC_NODE": 353.5679, "ARG_OF_PERICENTER": 308.0323, "MEAN_ANOMALY": 51.6162, "EPHEMERIS_TYPE": 0, "CLASSIFICATION_TYPE": "U", "NORAD_CAT_ID": 35125, "ELEMENT_SET_NO": 999, "REV_AT_EPOCH": 31218, "BSTAR": 0.0020544677, "MEAN_MOTION_DOT": 5.68e-05, "MEAN_MOTION_DDOT": 0}, "tle": {"line1": "1 35125U 99025DLD 25342.29555693  .00005680  00000+0  20545-2 0  9997", "line2": "2 35125  98.2165 353.5679 0052141 308.0323  51.6162 14.33084151312185"}}, "geometry": {"type": "Point", "coordinates": [-175.51521806627468, 8.781738181893889]}}, {"type": "Feature", "properties": {"norad_id": 35130, "name": "FENGYUN 1C DEB", "group": "fengyun-1c-debris", "lat": 67.39252727581203, "lon": 175.4812539954486, "alt_km": 548.9837181141429, "timestamp": "2025-12-18T10:51:26.095130+00:00", "meta": {"OBJECT_NAME": "FENGYUN 1C DEB", "OBJECT_ID": "1999-025DLJ", "EPOCH": "2025-12-17T20:09:13.141152", "MEAN_MOTION": 15.01150663, "ECCENTRICITY": 0.00111617, "INCLINATION": 99.0323, "RA_OF_ASC_NODE": 197.2276, "ARG_OF_PERICENTER": 55.756, "MEAN_ANOMALY": 304.4716, "EPHEMERIS_TYPE": 0, "CLASSIFICATION_TYPE": "U", "NORAD_CAT_ID": 35130, "ELEMENT_SET_NO": 999, "REV_AT_EPOCH": 64990, "BSTAR": 0.0063470097, "MEAN_MOTION_DOT": 0.00082289, "MEAN_MOTION_DDOT": 0}, "tle": {"line1": "1 35130U 99025DLJ 25351.83973543  .00082289  00000+0  63470-2 0  9995", "line2": "2 35130  99.0323 197.2276 0011161  55.7560 304.4716 15.01150663649903"}}, "geometry": {"type": "Point", "coordinates": [175.4812539954486, 67.39252727581203]}}, {"type": "Feature", "properties": {"norad_id": 35135, "name": "FENGYUN 1C DEB", "group": "fengyun-1c-debris", "lat": 33.84517165884804, "lon": -4.701348167876707, "alt_km": 848.9660905528999, "timestamp": "2025-12-18T10:51:26.095141+00:00", "meta": {"OBJECT_NAME": "FENGYUN 1C DEB", "OBJECT_ID": "1999-025DLP", "EPOCH": "2025-12-16T18:10:55.660224", "MEAN_MOTION": 14.22547917, "ECCENTRICITY": 0.00807653, "INCLINATION": 98.5647, "RA_OF_ASC_NODE": 359.4515, "ARG_OF_PERICENTER": 272.6039, "MEAN_ANOMALY": 86.5896, "EPHEMERIS_TYPE": 0, "CLASSIFICATION_TYPE": "U", "NORAD_CAT_ID": 35135, "ELEMENT_SET_NO": 999, "REV_AT_EPOCH": 87881, "BSTAR": 0.00044907129, "MEAN_MOTION_DOT": 9.93e-06, "MEAN_MOTION_DDOT": 0}, "tle": {"line1": "1 35135U 99025DLP 25350.75758866  .00000993  00000+0  44907-3 0  9996", "line2": "2 35135  98.5647 359.4515 0080765 272.6039  86.5896 14.22547917878811"}}, "geometry": {"type": "Point", "coordinates": [-4.701348167876707, 33.84517165884804]}}]}